[{"OBJECT_NAME":"OBJECT V","OBJECT_ID":"2023-085V","EPOCH":"2026-03-09T21:44:00.165408","MEAN_MOTION":15.30745852,"ECCENTRICITY":0.00069081,"INCLINATION":97.4843,"RA_OF_ASC_NODE":179.3833,"ARG_OF_PERICENTER":71.0503,"MEAN_ANOMALY":289.1485,"EPHEMERIS_TYPE":0,"CLASSIFICATION_TYPE":"U","NORAD_CAT_ID":57023,"ELEMENT_SET_NO":999,"REV_AT_EPOCH":15149,"BSTAR":0.00067780507,"MEAN_MOTION_DOT":0.00020109,"MEAN_MOTION_DDOT":0},{"OBJECT_NAME":"STARLINK-36127","OBJECT_ID":"2025-286L","EPOCH":"2026-03-09T05:08:36.120480","MEAN_MOTION":15.3019741,"ECCENTRICITY":9.617e-5,"INCLINATION":53.1615,"RA_OF_ASC_NODE":0.6854,"ARG_OF_PERICENTER":109.5307,"MEAN_ANOMALY":250.5798,"EPHEMERIS_TYPE":0,"CLASSIFICATION_TYPE":"U","NORAD_CAT_ID":66935,"ELEMENT_SET_NO":999,"REV_AT_EPOCH":1534,"BSTAR":-6.5778469e-5,"MEAN_MOTION_DOT":-2.306e-5,"MEAN_MOTION_DDOT":0}]
